CCSDS_OMM_VERS = 2.0
CREATION_DATE  = 
ORIGINATOR     = 

OBJECT_NAME    = 1998-067XU
OBJECT_ID      = 1998-067XU
CENTER_NAME    = EARTH
REF_FRAME      = TEME
TIME_SYSTEM    = UTC
MEAN_ELEMENT_THEORY = SGP/SGP4

EPOCH          = 2026-01-22T19:22:27.350400
MEAN_MOTION    = 15.57853459
ECCENTRICITY   = .0003283
INCLINATION    = 51.6287
RA_OF_ASC_NODE = 297.5262
ARG_OF_PERICENTER = 100.6556
MEAN_ANOMALY   = 259.4806

EPHEMERIS_TYPE = 0
CLASSIFICATION_TYPE = U
NORAD_CAT_ID   = 66908
ELEMENT_SET_NO = 999
REV_AT_EPOCH   = 800
BSTAR          = .12674197E-2
MEAN_MOTION_DOT = .96993E-3
MEAN_MOTION_DDOT = 0

CCSDS_OMM_VERS = 2.0
CREATION_DATE  = 
ORIGINATOR     = 

OBJECT_NAME    = SILVERSAT
OBJECT_ID      = 1998-067XV
CENTER_NAME    = EARTH
REF_FRAME      = TEME
TIME_SYSTEM    = UTC
MEAN_ELEMENT_THEORY = SGP/SGP4

EPOCH          = 2026-01-22T19:04:03.159264
MEAN_MOTION    = 15.58801362
ECCENTRICITY   = .00035769
INCLINATION    = 51.6290
RA_OF_ASC_NODE = 297.4418
ARG_OF_PERICENTER = 114.4171
MEAN_ANOMALY   = 245.7196

EPHEMERIS_TYPE = 0
CLASSIFICATION_TYPE = U
NORAD_CAT_ID   = 66909
ELEMENT_SET_NO = 999
REV_AT_EPOCH   = 800
BSTAR          = .13509283E-2
MEAN_MOTION_DOT = .107333E-2
MEAN_MOTION_DDOT = 0

CCSDS_OMM_VERS = 2.0
CREATION_DATE  = 
ORIGINATOR     = 

OBJECT_NAME    = 1998-067XW
OBJECT_ID      = 1998-067XW
CENTER_NAME    = EARTH
REF_FRAME      = TEME
TIME_SYSTEM    = UTC
MEAN_ELEMENT_THEORY = SGP/SGP4

EPOCH          = 2026-01-22T19:09:56.329632
MEAN_MOTION    = 15.58133458
ECCENTRICITY   = .00020879
INCLINATION    = 51.6286
RA_OF_ASC_NODE = 297.4659
ARG_OF_PERICENTER = 91.4803
MEAN_ANOMALY   = 268.6429

EPHEMERIS_TYPE = 0
CLASSIFICATION_TYPE = U
NORAD_CAT_ID   = 66910
ELEMENT_SET_NO = 999
REV_AT_EPOCH   = 800
BSTAR          = .11657824E-2
MEAN_MOTION_DOT = .90034E-3
MEAN_MOTION_DDOT = 0

CCSDS_OMM_VERS = 2.0
CREATION_DATE  = 
ORIGINATOR     = 

OBJECT_NAME    = 1998-067XX
OBJECT_ID      = 1998-067XX
CENTER_NAME    = EARTH
REF_FRAME      = TEME
TIME_SYSTEM    = UTC
MEAN_ELEMENT_THEORY = SGP/SGP4

EPOCH          = 2026-01-22T18:37:55.896960
MEAN_MOTION    = 15.59783570
ECCENTRICITY   = .00023976
INCLINATION    = 51.6277
RA_OF_ASC_NODE = 297.3173
ARG_OF_PERICENTER = 121.6276
MEAN_ANOMALY   = 238.4951

EPHEMERIS_TYPE = 0
CLASSIFICATION_TYPE = U
NORAD_CAT_ID   = 66911
ELEMENT_SET_NO = 999
REV_AT_EPOCH   = 799
BSTAR          = .14161796E-2
MEAN_MOTION_DOT = .116959E-2
MEAN_MOTION_DDOT = 0

CCSDS_OMM_VERS = 2.0
CREATION_DATE  = 
ORIGINATOR     = 

OBJECT_NAME    = 1998-067XY
OBJECT_ID      = 1998-067XY
CENTER_NAME    = EARTH
REF_FRAME      = TEME
TIME_SYSTEM    = UTC
MEAN_ELEMENT_THEORY = SGP/SGP4

EPOCH          = 2026-01-22T18:29:34.570464
MEAN_MOTION    = 15.56081800
ECCENTRICITY   = .00030011
INCLINATION    = 51.6301
RA_OF_ASC_NODE = 298.0323
ARG_OF_PERICENTER = 82.8948
MEAN_ANOMALY   = 277.2384

EPHEMERIS_TYPE = 0
CLASSIFICATION_TYPE = U
NORAD_CAT_ID   = 66912
ELEMENT_SET_NO = 999
REV_AT_EPOCH   = 798
BSTAR          = .99821305E-3
MEAN_MOTION_DOT = .71152E-3
MEAN_MOTION_DDOT = 0

