1998-067XU              
1 66908U 98067XU  26022.80726100  .00096993  00000+0  12674-2 0  9992
2 66908  51.6287 297.5262 0003283 100.6556 259.4806 15.57853459  8006
SILVERSAT               
1 66909U 98067XV  26022.79448101  .00107333  00000+0  13509-2 0  9992
2 66909  51.6290 297.4418 0003576 114.4171 245.7196 15.58801362  8001
1998-067XW              
1 66910U 98067XW  26022.79856863  .00090034  00000+0  11658-2 0  9994
2 66910  51.6286 297.4659 0002087  91.4803 268.6429 15.58133458  8004
1998-067XX              
1 66911U 98067XX  26022.77634140  .00116959  00000+0  14162-2 0  9993
2 66911  51.6277 297.3173 0002397 121.6276 238.4951 15.59783570  7998
1998-067XY              
1 66912U 98067XY  26022.77053901  .00071152  00000+0  99821-3 0  9995
2 66912  51.6301 298.0323 0003001  82.8948 277.2384 15.56081800  7983
